{
  "type": "FeatureCollection",
  "features": [
    {
      "type": "Feature",
      "properties": {
        "norad_id": 41026,
        "name": "YAOGAN-28",
        "group": "resource",
        "lat": -47.54501347066597,
        "lon": 146.23879638528396,
        "alt_km": 504.4433331646105,
        "timestamp": "2025-12-26T19:22:38.551388+00:00",
        "meta_object_name": "YAOGAN-28",
        "meta_object_id": "2015-064A",
        "meta_epoch": "2025-12-26T14:51:44.190144",
        "meta_mean_motion": 15.24572922,
        "meta_eccentricity": 0.00126463,
        "meta_inclination": 97.2815,
        "meta_ra_of_asc_node": 138.022,
        "meta_arg_of_pericenter": 82.0603,
        "meta_mean_anomaly": 278.207,
        "meta_ephemeris_type": 0,
        "meta_classification_type": "U",
        "meta_norad_cat_id": 41026,
        "meta_element_set_no": 999,
        "meta_rev_at_epoch": 56436,
        "meta_bstar": 0.00034766893,
        "meta_mean_motion_dot": 8.517e-05,
        "meta_mean_motion_ddot": 0,
        "tle_line1": "1 41026U 15064A   25360.61926146  .00008517  00000+0  34767-3 0  9990",
        "tle_line2": "2 41026  97.2815 138.0220 0012646  82.0603 278.2070 15.24572922564360"
      },
      "geometry": {
        "type": "Point",
        "coordinates": [
          146.23879638528396,
          -47.54501347066597
        ]
      }
    },
    {
      "type": "Feature",
      "properties": {
        "norad_id": 41038,
        "name": "YAOGAN-29",
        "group": "resource",
        "lat": 71.14446146061097,
        "lon": -131.59026942938704,
        "alt_km": 612.8949469593881,
        "timestamp": "2025-12-26T19:22:38.551398+00:00",
        "meta_object_name": "YAOGAN-29",
        "meta_object_id": "2015-069A",
        "meta_epoch": "2025-12-26T15:39:26.303328",
        "meta_mean_motion": 14.82898868,
        "meta_eccentricity": 9.473e-05,
        "meta_inclination": 98.0208,
        "meta_ra_of_asc_node": 23.8677,
        "meta_arg_of_pericenter": 158.1481,
        "meta_mean_anomaly": 201.9773,
        "meta_ephemeris_type": 0,
        "meta_classification_type": "U",
        "meta_norad_cat_id": 41038,
        "meta_element_set_no": 999,
        "meta_rev_at_epoch": 54505,
        "meta_bstar": 9.4041417e-05,
        "meta_mean_motion_dot": 7.08e-06,
        "meta_mean_motion_ddot": 0,
        "tle_line1": "1 41038U 15069A   25360.65238777  .00000708  00000+0  94041-4 0  9994",
        "tle_line2": "2 41038  98.0208  23.8677 0000947 158.1481 201.9773 14.82898868545056"
      },
      "geometry": {
        "type": "Point",
        "coordinates": [
          -131.59026942938704,
          71.14446146061097
        ]
      }
    },
    {
      "type": "Feature",
      "properties": {
        "norad_id": 41167,
        "name": "KENT RIDGE 1",
        "group": "resource",
        "lat": 9.233672542717743,
        "lon": 144.19435432887266,
        "alt_km": 494.45772757408577,
        "timestamp": "2025-12-26T19:22:38.551408+00:00",
        "meta_object_name": "KENT RIDGE 1",
        "meta_object_id": "2015-077B",
        "meta_epoch": "2025-12-26T12:55:02.392032",
        "meta_mean_motion": 15.21738831,
        "meta_eccentricity": 0.00085236,
        "meta_inclination": 14.9791,
        "meta_ra_of_asc_node": 108.7428,
        "meta_arg_of_pericenter": 325.4812,
        "meta_mean_anomaly": 34.4956,
        "meta_ephemeris_type": 0,
        "meta_classification_type": "U",
        "meta_norad_cat_id": 41167,
        "meta_element_set_no": 999,
        "meta_rev_at_epoch": 55474,
        "meta_bstar": 0.00016758963,
        "meta_mean_motion_dot": 4.67e-05,
        "meta_mean_motion_ddot": 0,
        "tle_line1": "1 41167U 15077B   25360.53822213  .00004670  00000+0  16759-3 0  9998",
        "tle_line2": "2 41167  14.9791 108.7428 0008523 325.4812  34.4956 15.21738831554740"
      },
      "geometry": {
        "type": "Point",
        "coordinates": [
          144.19435432887266,
          9.233672542717743
        ]
      }
    },
    {
      "type": "Feature",
      "properties": {
        "norad_id": 41194,
        "name": "GAOFEN-4",
        "group": "resource",
        "lat": 0.17124594571604082,
        "lon": 131.8762784927107,
        "alt_km": 35778.33751155372,
        "timestamp": "2025-12-26T19:22:38.551420+00:00",
        "meta_object_name": "GAOFEN-4",
        "meta_object_id": "2015-083A",
        "meta_epoch": "2025-12-26T16:21:31.142880",
        "meta_mean_motion": 1.00269117,
        "meta_eccentricity": 0.00028194,
        "meta_inclination": 0.2038,
        "meta_ra_of_asc_node": 81.9899,
        "meta_arg_of_pericenter": 94.1449,
        "meta_mean_anomaly": 270.3676,
        "meta_ephemeris_type": 0,
        "meta_classification_type": "U",
        "meta_norad_cat_id": 41194,
        "meta_element_set_no": 999,
        "meta_rev_at_epoch": 3680,
        "meta_bstar": 0,
        "meta_mean_motion_dot": -3.12e-06,
        "meta_mean_motion_ddot": 0,
        "tle_line1": "1 41194U 15083A   25360.68161045 -.00000312  00000+0  00000+0 0  9998",
        "tle_line2": "2 41194   0.2038  81.9899 0002819  94.1449 270.3676  1.00269117 36804"
      },
      "geometry": {
        "type": "Point",
        "coordinates": [
          131.8762784927107,
          0.17124594571604082
        ]
      }
    },
    {
      "type": "Feature",
      "properties": {
        "norad_id": 41240,
        "name": "JASON-3",
        "group": "resource",
        "lat": -4.563592308974509,
        "lon": 126.21474113689467,
        "alt_km": 1312.8096475322209,
        "timestamp": "2025-12-26T19:22:38.551431+00:00",
        "meta_object_name": "JASON-3",
        "meta_object_id": "2016-002A",
        "meta_epoch": "2025-12-26T15:40:30.293760",
        "meta_mean_motion": 12.87627185,
        "meta_eccentricity": 0.00073318,
        "meta_inclination": 66.0407,
        "meta_ra_of_asc_node": 128.5728,
        "meta_arg_of_pericenter": 271.6466,
        "meta_mean_anomaly": 88.3713,
        "meta_ephemeris_type": 0,
        "meta_classification_type": "U",
        "meta_norad_cat_id": 41240,
        "meta_element_set_no": 999,
        "meta_rev_at_epoch": 46503,
        "meta_bstar": 0.00019363039,
        "meta_mean_motion_dot": -1.3e-07,
        "meta_mean_motion_ddot": 0,
        "tle_line1": "1 41240U 16002A   25360.65312840 -.00000013  00000+0  19363-3 0  9994",
        "tle_line2": "2 41240  66.0407 128.5728 0007331 271.6466  88.3713 12.87627185465030"
      },
      "geometry": {
        "type": "Point",
        "coordinates": [
          126.21474113689467,
          -4.563592308974509
        ]
      }
    },
    {
      "type": "Feature",
      "properties": {
        "norad_id": 41335,
        "name": "SENTINEL-3A",
        "group": "resource",
        "lat": -26.74239144375395,
        "lon": -118.76501916897688,
        "alt_km": 808.5489528390663,
        "timestamp": "2025-12-26T19:22:38.551441+00:00",
        "meta_object_name": "SENTINEL-3A",
        "meta_object_id": "2016-011A",
        "meta_epoch": "2025-12-26T15:02:38.974272",
        "meta_mean_motion": 14.26736012,
        "meta_eccentricity": 8.869e-05,
        "meta_inclination": 98.6296,
        "meta_ra_of_asc_node": 65.4455,
        "meta_arg_of_pericenter": 97.8488,
        "meta_mean_anomaly": 262.2793,
        "meta_ephemeris_type": 0,
        "meta_classification_type": "U",
        "meta_norad_cat_id": 41335,
        "meta_element_set_no": 999,
        "meta_rev_at_epoch": 51345,
        "meta_bstar": 7.7863725e-05,
        "meta_mean_motion_dot": 1.45e-06,
        "meta_mean_motion_ddot": 0,
        "tle_line1": "1 41335U 16011A   25360.62683998  .00000145  00000+0  77864-4 0  9997",
        "tle_line2": "2 41335  98.6296  65.4455 0000886  97.8488 262.2793 14.26736012513454"
      },
      "geometry": {
        "type": "Point",
        "coordinates": [
          -118.76501916897688,
          -26.74239144375395
        ]
      }
    },
    {
      "type": "Feature",
      "properties": {
        "norad_id": 41556,
        "name": "ZIYUAN 3-02 (ZY 3-02)",
        "group": "resource",
        "lat": 56.770355001567516,
        "lon": 63.291775538072756,
        "alt_km": 502.3918562650342,
        "timestamp": "2025-12-26T19:22:38.551451+00:00",
        "meta_object_name": "ZIYUAN 3-02 (ZY 3-02)",
        "meta_object_id": "2016-033A",
        "meta_epoch": "2025-12-26T14:23:20.156640",
        "meta_mean_motion": 15.2125258,
        "meta_eccentricity": 0.0011559,
        "meta_inclination": 97.4023,
        "meta_ra_of_asc_node": 74.5338,
        "meta_arg_of_pericenter": 194.5449,
        "meta_mean_anomaly": 165.5456,
        "meta_ephemeris_type": 0,
        "meta_classification_type": "U",
        "meta_norad_cat_id": 41556,
        "meta_element_set_no": 999,
        "meta_rev_at_epoch": 53174,
        "meta_bstar": 0.00033088234,
        "meta_mean_motion_dot": 7.337e-05,
        "meta_mean_motion_ddot": 0,
        "tle_line1": "1 41556U 16033A   25360.59953885  .00007337  00000+0  33088-3 0  9996",
        "tle_line2": "2 41556  97.4023  74.5338 0011559 194.5449 165.5456 15.21252580531748"
      },
      "geometry": {
        "type": "Point",
        "coordinates": [
          63.291775538072756,
          56.770355001567516
        ]
      }
    }
  ]
}